# FY3D (LEO)
1 43010U 17072A   25278.51522370  .00000230  00000+0  13056-3 0  9996
2 43010  98.9774 243.8400 0002481  67.7892 292.3546 14.19652616408856

# FY3E (LEO)
1 49008U 21062A   25278.53130912  .00000093  00000+0  64485-4 0  9992
2 49008  98.7478 279.8548 0002721  96.1763 263.9723 14.19866435220444

# FY3F (LEO)
1 57490U 23111A   25278.51868953  .00000176  00000+0  10359-3 0  9996
2 57490  98.7164 347.8867 0001505  97.1828 262.9520 14.19867593112723

# FY3G (LEO)
1 56232U 23055A   25278.53234545  .00039621  00000+0  61905-3 0  9992
2 56232  49.9942 219.2210 0008989 220.5298 139.5001 15.53308806140425

# C2E1 (LEO)
1 44349U 19036L   25278.42956383  .00005342  00000+0  41876-3 0  9999
2 44349  23.9990 311.3328 0000843 195.7495 164.2980 14.97747043346430

# C2E2 (LEO)
1 44351U 19036N   25277.74077094  .00005868  00000+0  46267-3 0  9991
2 44351  23.9981  72.3826 0000663 183.1187 176.9310 14.97731474345267

# C2E3 (LEO)
1 44343U 19036E   25278.25909225  .00007240  00000+0  45076-3 0  9992
2 44343  23.9987 129.5961 0001055  98.4300 261.6323 15.06858776344700

# C2E4 (LEO)
1 44350U 19036M   25278.38430058  .00005335  00000+0  41840-3 0  9995
2 44350  24.0003  13.7168 0000868 182.9568 177.0928 14.97729247345844

# C2E5 (LEO)
1 44358U 19036V   25278.05948161  .00006372  00000+0  49962-3 0  9991
2 44358  23.9989 189.9261 0001371  85.4811 274.5847 14.98103803344073

# C2E6 (LEO)
1 44353U 19036Q   25278.34045961  .00005113  00000+0  39992-3 0  9998
2 44353  23.9979 249.1621 0001103 233.4418 126.5981 14.97727813343589

# G01 (GNSS)
1 62339U 24242A   25275.57961462 -.00000072  00000+0  00000+0 0  9996
2 62339  54.9445 344.6254 0008605 341.1019  17.5163  2.00566232  6085

# G02 (GNSS)
1 28474U 04045A   25275.28636214 -.00000061  00000+0  00000+0 0  9997
2 28474  55.2736 335.2817 0168359 306.5269 231.8452  2.00566206153255

# G03 (GNSS)
1 40294U 14068A   25277.65430687 -.00000043  00000+0  00000+0 0  9996
2 40294  56.8091  40.8170 0061557  69.8790 290.7834  2.00560508 80088

# G04 (GNSS)
1 43873U 18109A   25277.97521773  .00000077  00000+0  00000+0 0  9990
2 43873  55.5252 102.2620 0035806 194.4962 339.1857  2.00574498 49953

# G05 (GNSS)
1 35752U 09043A   25278.31963285 -.00000052  00000+0  00000+0 0  9995
2 35752  56.0461  37.4801 0054085  82.0821 259.8741  2.00569589118248

# G06 (GNSS)
1 39741U 14026A   25278.18800855 -.00000061  00000+0  00000+0 0  9992
2 39741  56.6082 341.4443 0036665 316.8383  42.9424  2.00566119 83426

# G07 (GNSS)
1 32711U 08012A   25277.87042749  .00000047  00000+0  00000+0 0  9998
2 32711  54.4674 160.1231 0200744 244.3479 113.6511  2.00562422128631

# G08 (GNSS)
1 40730U 15033A   25277.94803894  .00000010  00000+0  00000+0 0  9993
2 40730  54.1888 277.6017 0106772  25.5041 335.0372  2.00569067 74874

# G09 (GNSS)
1 40105U 14045A   25277.77992597  .00000072  00000+0  00000+0 0  9999
2 40105  55.1842  98.6496 0033165 117.7077 242.6929  2.00568314 80952

# G10 (GNSS)
1 41019U 15062A   25278.00653784 -.00000044  00000+0  00000+0 0  9993
2 41019  56.7844  40.6595 0107971 228.3070 130.7689  2.00566954 72715

# G11 (GNSS)
1 48859U 21054A   25273.71931440 -.00000078  00000+0  00000+0 0  9998
2 48859  55.2816 342.8884 0023643 228.9477 109.7031  2.00557460 31540

# G12 (GNSS)
1 29601U 06052A   25278.14492260  .00000002  00000+0  00000+0 0  9993
2 29601  54.9896 224.1182 0085650  86.9865 273.9717  2.00569184138291

# G13 (GNSS)
1 24876U 97035A   25277.92863750  .00000083  00000+0  00000+0 0  9993
2 24876  55.8589 108.5601 0095780  56.6054 304.3880  2.00563074206837

# G14 (GNSS)
1 46826U 20078A   25278.50190654  .00000002  00000+0  00000+0 0  9997
2 46826  54.0344 221.1095 0063104 203.5455 159.5404  2.00567066 36409

# G15 (GNSS)
1 32260U 07047A   25278.44934937  .00000054  00000+0  00000+0 0  9995
2 32260  53.9060  90.5784 0164694  84.1096 277.8143  2.00567261131702

# G16 (GNSS)
1 27663U 03005A   25278.42329536  .00000003  00000+0  00000+0 0  9991
2 27663  54.9446 225.0932 0144316  50.8837  12.1990  2.00574554166200

# G17 (GNSS)
1 28874U 05038A   25278.09311741  .00000009  00000+0  00000+0 0  9992
2 28874  55.0906 283.4638 0133779 291.7921  75.3168  2.00552707146729

# G18 (GNSS)
1 44506U 19056A   25278.48618044 -.00000062  00000+0  00000+0 0  9996
2 44506  55.7458 341.2646 0057196 196.5994 241.0988  2.00564040 44968

# G19 (GNSS)
1 28190U 04009A   25278.31870881  .00000006  00000+0  00000+0 0  9997
2 28190  55.0448 285.9760 0107686 166.1378 342.9237  2.00563349157831

# G20 (GNSS)
1 26360U 00025A   25278.28229566 -.00000065  00000+0  00000+0 0  9998
2 26360  55.0067  29.6064 0037545 235.8747 110.7213  2.00573013186156

# G21 (GNSS)
1 64202U 25116A   25278.39241582 -.00000046  00000+0  00000+0 0  9996
2 64202  55.0571  41.4014 0002541 298.5377 122.1595  2.00562763  2767

# G22 (GNSS)
1 26407U 00040A   25278.26855043  .00000003  00000+0  00000+0 0  9991
2 26407  54.9113 225.2891 0129773 300.3773 236.3770  2.00567020184839

# G23 (GNSS)
1 45854U 20041A   25277.95878081 -.00000048  00000+0  00000+0 0  9993
2 45854  56.5001  38.8643 0058425 200.6108 161.1099  2.00563356 38927

# G24 (GNSS)
1 38833U 12053A   25278.04817443  .00000055  00000+0  00000+0 0  9999
2 38833  53.5456 154.0527 0172840  62.7396 299.1071  2.00564338 94322

# G25 (GNSS)
1 36585U 10022A   25277.16447182 -.00000001  00000+0  00000+0 0  9998
2 36585  54.3516 218.8498 0123132  64.3027 285.5016  2.00549458112454

# G26 (GNSS)
1 40534U 15013A   25278.28460600  .00000001  00000+0  00000+0 0  9995
2 40534  53.2139 214.7232 0103448  36.6903 324.0000  2.00566500 76713

# G27 (GNSS)
1 39166U 13023A   25278.41040660  .00000008  00000+0  00000+0 0  9995
2 39166  54.7093 279.3444 0134132  48.1607 312.9970  2.00565365 90774

# G28 (GNSS)
1 55268U 23009A   25277.43516926  .00000045  00000+0  00000+0 0  9996
2 55268  55.0963 158.5683 0003667 352.6229 190.2941  2.00561238 20110

# G29 (GNSS)
1 32384U 07062A   25278.51005793  .00000006  00000+0  00000+0 0  9993
2 32384  55.2394 284.3817 0032445 163.7700   9.1273  2.00573917130409

# G30 (GNSS)
1 39533U 14008A   25277.90885551  .00000046  00000+0  00000+0 0  9998
2 39533  53.6207 159.7325 0078336 226.1952 133.2410  2.00570363 84567

# G31 (GNSS)
1 29486U 06042A   25278.41194235  .00000050  00000+0  00000+0 0  9997
2 29486  54.6863 161.4529 0106674  49.9254  90.0161  2.00556694139285

# G32 (GNSS)
1 41328U 16007A   25278.08824082  .00000073  00000+0  00000+0 0  9996
2 41328  55.3638  99.5811 0089181 242.5327 116.6204  2.00564292 70721

# C06 (GNSS)
1 36828U 10036A   25274.62951184 -.00000130  00000+0  00000+0 0  9996
2 36828  54.2764 165.3028 0051118 217.1117 319.3386  1.00297170 55503

# C04 (GNSS)
1 37210U 10057A   25278.43308698 -.00000108  00000+0  00000+0 0  9999
2 37210   3.0090  70.1331 0009143 173.5191  86.6517  1.00270384 54733

# C07 (GNSS)
1 37256U 10068A   25277.61973421 -.00000173  00000+0  00000+0 0  9994
2 37256  48.0105 274.9987 0048183 217.2335 210.0473  1.00253690 54233

# C14 (GNSS)
1 38775U 12050B   25278.31384791  .00000024  00000+0  00000+0 0  9992
2 38775  56.3194  71.3364 0010677 356.2343   3.7712  1.86230872 88565

# C01 (GNSS)
1 44231U 19027A   25278.54142084 -.00000243  00000+0  00000+0 0  9993
2 44231   1.4833  74.4137 0006647 259.8631  19.6670  1.00272932 23525

# C24 (GNSS)
1 43582U 18062B   25277.91653524  .00000011  00000+0  00000+0 0  9997
2 43582  54.0924 190.9740 0006328  29.2734 330.7907  1.86229705 48881

# C26 (GNSS)
1 43602U 18067A   25277.85358911  .00000011  00000+0  00000+0 0  9990
2 43602  54.1861 189.7006 0008420  33.0888 326.9950  1.86227586 48367

# C25 (GNSS)
1 43603U 18067B   25274.22919078 -.00000008  00000+0  00000+0 0  9993
2 43603  54.1837 189.7877 0004957  22.9076 337.1408  1.86227140 48328

# C32 (GNSS)
1 43622U 18072A   25278.48211825  .00000022  00000+0  00000+0 0  9992
2 43622  56.3339  71.0707 0012517 336.8112  23.1446  1.86231649 47911

# C33 (GNSS)
1 43623U 18072B   25278.34759487  .00000023  00000+0  00000+0 0  9990
2 43623  56.4016  71.0774 0002957  15.6690 344.3533  1.86231060 47900

# C35 (GNSS)
1 43647U 18078A   25277.96942766 -.00000020  00000+0  00000+0 0  9991
2 43647  54.3222 308.9258 0005917  19.4254 340.6612  1.86232237 47407

# C34 (GNSS)
1 43648U 18078B   25278.09861461 -.00000020  00000+0  00000+0 0  9999
2 43648  54.3178 308.9224 0002487  21.6949 338.3793  1.86232210 47423

# C59 (GNSS)
1 43683U 18085A   25278.45194641 -.00000272  00000+0  00000+0 0  9994
2 43683   2.9315 104.6127 0003607  12.3837 200.1641  1.00274057 25509

# C36 (GNSS)
1 43706U 18093A   25273.73175409 -.00000007  00000+0  00000+0 0  9992
2 43706  54.1767 191.1001 0008346 297.1089 269.6607  1.86228378 46700

# C37 (GNSS)
1 43707U 18093B   25275.96951074 -.00000004  00000+0  00000+0 0  9997
2 43707  54.1773 191.0161 0007210 331.8780  28.1064  1.86229963 46747

# C38 (GNSS)
1 44204U 19023A   25278.23389211 -.00000208  00000+0  00000+0 0  9991
2 44204  58.3390  40.2865 0025812 216.7660 319.6390  1.00264655  4650

# C39 (GNSS)
1 44337U 19035A   25277.59084312 -.00000123  00000+0  00000+0 0  9999
2 44337  55.2141 161.1118 0037381 203.1192 339.4652  1.00292733 23105

# C46 (GNSS)
1 44542U 19061A   25273.89313994 -.00000007  00000+0  00000+0 0  9997
2 44542  54.4040 191.4744 0008946   8.3618 351.6770  1.86229396 40965

# C45 (GNSS)
1 44543U 19061B   25275.26882609 -.00000006  00000+0  00000+0 0  9994
2 44543  54.4027 191.3964 0005720 357.8891 117.2833  1.86229569 40997

# C40 (GNSS)
1 44709U 19073A   25277.42123988 -.00000150  00000+0  00000+0 0  9999
2 44709  55.2417 283.6622 0045410 191.9488 167.9677  1.00264861 21894

# C44 (GNSS)
1 44793U 19078A   25276.95587008 -.00000018  00000+0  00000+0 0  9994
2 44793  54.1697 308.8350 0004579  25.4054 334.6821  1.86232104 39874

# C43 (GNSS)
1 44794U 19078B   25278.16585517 -.00000021  00000+0  00000+0 0  9997
2 44794  54.1420 308.7589 0002765  10.5588 349.5101  1.86227681 39908
